start=new Date('2021-12-06T00:00:00.000Z').valueOf();
sats=[{"CENTER_NAME":"EARTH","DECAY_DATE":null,"ECCENTRICITY":"0.00018830","COUNTRY_CODE":"US","EPOCH":"2021-12-05T16:29:05.540352","SITE":"AFETR","MEAN_ELEMENT_THEORY":"SGP4","REF_FRAME":"TEME","GP_ID":"191171639","REV_AT_EPOCH":"3225","NORAD_CAT_ID":"48446","MEAN_ANOMALY":"308.7774","MEAN_MOTION":"15.06398538","MEAN_MOTION_DOT":"0.00000919","ELEMENT_SET_NO":"999","LAUNCH_DATE":"2021-05-09","SEMIMAJOR_AXIS":"6925.353","TIME_SYSTEM":"UTC","TLE_LINE1":"1 48446U 21040U   21339.68686968  .00000919  00000-0  80572-4 0  9993","BSTAR":"0.00008057200000","APOAPSIS":"548.522","PERIAPSIS":"545.914","CLASSIFICATION_TYPE":"U","ARG_OF_PERICENTER":"51.3384","OBJECT_NAME":"STARLINK-2247","PERIOD":"95.592","OBJECT_ID":"2021-040U","TLE_LINE2":"2 48446  53.0563 322.2884 0001883  51.3384 308.7774 15.06398538 32259","INCLINATION":"53.0563","RCS_SIZE":"LARGE","FILE":"3233515","MEAN_MOTION_DDOT":"0.0000000000000","RA_OF_ASC_NODE":"322.2884","OBJECT_TYPE":"PAYLOAD","EPHEMERIS_TYPE":"0"},{"FILE":"3233515","MEAN_MOTION_DDOT":"0.0000000000000","RA_OF_ASC_NODE":"322.3033","EPHEMERIS_TYPE":"0","OBJECT_TYPE":"PAYLOAD","TLE_LINE2":"2 48447  53.0566 322.3033 0001766  55.7975 304.3181 15.06387979 32255","OBJECT_ID":"2021-040V","INCLINATION":"53.0566","PERIOD":"95.593","RCS_SIZE":"LARGE","ARG_OF_PERICENTER":"55.7975","CLASSIFICATION_TYPE":"U","BSTAR":"0.00019659000000","APOAPSIS":"548.473","PERIAPSIS":"546.027","OBJECT_NAME":"STARLINK-2269","SEMIMAJOR_AXIS":"6925.385","TIME_SYSTEM":"UTC","TLE_LINE1":"1 48447U 21040V   21339.68320314  .00002647  00000-0  19659-3 0  9991","MEAN_ANOMALY":"304.3181","MEAN_MOTION":"15.06387979","LAUNCH_DATE":"2021-05-09","ELEMENT_SET_NO":"999","MEAN_MOTION_DOT":"0.00002647","REV_AT_EPOCH":"3225","GP_ID":"191172108","NORAD_CAT_ID":"48447","EPOCH":"2021-12-05T16:23:48.751296","REF_FRAME":"TEME","MEAN_ELEMENT_THEORY":"SGP4","SITE":"AFETR","CENTER_NAME":"EARTH","DECAY_DATE":null,"COUNTRY_CODE":"US","ECCENTRICITY":"0.00017660"},{"EPHEMERIS_TYPE":"0","OBJECT_TYPE":"PAYLOAD","MEAN_MOTION_DDOT":"0.0000000000000","RA_OF_ASC_NODE":"323.3852","FILE":"3233315","RCS_SIZE":"LARGE","INCLINATION":"53.0573","TLE_LINE2":"2 48448  53.0573 323.3852 0001838  55.3816 304.7346 15.06392059 33482","OBJECT_ID":"2021-040W","PERIOD":"95.593","OBJECT_NAME":"STARLINK-2632","CLASSIFICATION_TYPE":"U","ARG_OF_PERICENTER":"55.3816","APOAPSIS":"548.511","PERIAPSIS":"545.965","BSTAR":"0.00003379300000","TLE_LINE1":"1 48448U 21040W   21339.44265396  .00000222  00000-0  33793-4 0  9997","TIME_SYSTEM":"UTC","SEMIMAJOR_AXIS":"6925.373","LAUNCH_DATE":"2021-05-09","ELEMENT_SET_NO":"999","MEAN_MOTION_DOT":"0.00000222","MEAN_MOTION":"15.06392059","MEAN_ANOMALY":"304.7346","NORAD_CAT_ID":"48448","REV_AT_EPOCH":"3348","GP_ID":"191143607","MEAN_ELEMENT_THEORY":"SGP4","REF_FRAME":"TEME","SITE":"AFETR","EPOCH":"2021-12-05T10:37:25.302144","COUNTRY_CODE":"US","ECCENTRICITY":"0.00018380","DECAY_DATE":null,"CENTER_NAME":"EARTH"},{"NORAD_CAT_ID":"48449","REV_AT_EPOCH":"3225","GP_ID":"191172734","LAUNCH_DATE":"2021-05-09","ELEMENT_SET_NO":"999","MEAN_MOTION_DOT":"0.00000428","MEAN_MOTION":"15.06399405","MEAN_ANOMALY":"303.2929","ECCENTRICITY":"0.00017240","COUNTRY_CODE":"US","DECAY_DATE":null,"CENTER_NAME":"EARTH","MEAN_ELEMENT_THEORY":"SGP4","REF_FRAME":"TEME","SITE":"AFETR","EPOCH":"2021-12-05T16:18:28.881216","RCS_SIZE":"LARGE","INCLINATION":"53.0569","OBJECT_ID":"2021-040X","TLE_LINE2":"2 48449  53.0569 322.3229 0001724  56.8225 303.2929 15.06399405 32256","PERIOD":"95.592","EPHEMERIS_TYPE":"0","OBJECT_TYPE":"PAYLOAD","RA_OF_ASC_NODE":"322.3229","MEAN_MOTION_DDOT":"0.0000000000000","FILE":"3233515","TLE_LINE1":"1 48449U 21040X   21339.67950094  .00000428  00000-0  47644-4 0  9997","TIME_SYSTEM":"UTC","SEMIMAJOR_AXIS":"6925.350","OBJECT_NAME":"STARLINK-2655","ARG_OF_PERICENTER":"56.8225","CLASSIFICATION_TYPE":"U","APOAPSIS":"548.409","PERIAPSIS":"546.021","BSTAR":"0.00004764400000"},{"RCS_SIZE":"LARGE","PERIOD":"95.592","INCLINATION":"53.0558","TLE_LINE2":"2 48450  53.0558 322.3351 0001859  55.6175 304.4990 15.06401038 32259","OBJECT_ID":"2021-040Y","OBJECT_TYPE":"PAYLOAD","EPHEMERIS_TYPE":"0","MEAN_MOTION_DDOT":"0.0000000000000","RA_OF_ASC_NODE":"322.3351","FILE":"3233515","TLE_LINE1":"1 48450U 21040Y   21339.67580662  .00002732  00000-0  20224-3 0  9993","TIME_SYSTEM":"UTC","SEMIMAJOR_AXIS":"6925.345","OBJECT_NAME":"STARLINK-2660","APOAPSIS":"548.498","PERIAPSIS":"545.923","BSTAR":"0.00020224000000","CLASSIFICATION_TYPE":"U","ARG_OF_PERICENTER":"55.6175","NORAD_CAT_ID":"48450","GP_ID":"191171952","REV_AT_EPOCH":"3225","MEAN_MOTION_DOT":"0.00002732","ELEMENT_SET_NO":"999","LAUNCH_DATE":"2021-05-09","MEAN_MOTION":"15.06401038","MEAN_ANOMALY":"304.4990","ECCENTRICITY":"0.00018590","COUNTRY_CODE":"US","DECAY_DATE":null,"CENTER_NAME":"EARTH","SITE":"AFETR","MEAN_ELEMENT_THEORY":"SGP4","REF_FRAME":"TEME","EPOCH":"2021-12-05T16:13:09.691968"},{"REV_AT_EPOCH":"3225","GP_ID":"191171796","NORAD_CAT_ID":"48451","MEAN_ANOMALY":"308.5436","MEAN_MOTION":"15.06386556","LAUNCH_DATE":"2021-05-09","MEAN_MOTION_DOT":"-0.00000407","ELEMENT_SET_NO":"999","CENTER_NAME":"EARTH","DECAY_DATE":null,"ECCENTRICITY":"0.00019940","COUNTRY_CODE":"US","EPOCH":"2021-12-05T16:07:51.896352","REF_FRAME":"TEME","MEAN_ELEMENT_THEORY":"SGP4","SITE":"AFETR","OBJECT_ID":"2021-040Z","TLE_LINE2":"2 48451  53.0567 322.3565 0001994  51.5731 308.5436 15.06386556 32257","INCLINATION":"53.0567","PERIOD":"95.593","RCS_SIZE":"LARGE","FILE":"3233515","MEAN_MOTION_DDOT":"0.0000000000000","RA_OF_ASC_NODE":"322.3565","EPHEMERIS_TYPE":"0","OBJECT_TYPE":"PAYLOAD","SEMIMAJOR_AXIS":"6925.390","TIME_SYSTEM":"UTC","TLE_LINE1":"1 48451U 21040Z   21339.67212843 -.00000407  00000-0 -84121-5 0  9994","CLASSIFICATION_TYPE":"U","ARG_OF_PERICENTER":"51.5731","BSTAR":"-0.00000841210000","APOAPSIS":"548.636","PERIAPSIS":"545.874","OBJECT_NAME":"STARLINK-2652"},{"SEMIMAJOR_AXIS":"6925.383","TIME_SYSTEM":"UTC","TLE_LINE1":"1 48452U 21040AA  21339.67486374 -.00002594  00000-0 -15537-3 0  9999","BSTAR":"-0.00015537000000","PERIAPSIS":"545.974","APOAPSIS":"548.522","ARG_OF_PERICENTER":"59.1000","CLASSIFICATION_TYPE":"U","OBJECT_NAME":"STARLINK-2703","PERIOD":"95.593","TLE_LINE2":"2 48452  53.0558 322.3413 0001840  59.1000 301.0170 15.06388810 32251","OBJECT_ID":"2021-040AA","INCLINATION":"53.0558","RCS_SIZE":"LARGE","FILE":"3233515","RA_OF_ASC_NODE":"322.3413","MEAN_MOTION_DDOT":"0.0000000000000","OBJECT_TYPE":"PAYLOAD","EPHEMERIS_TYPE":"0","CENTER_NAME":"EARTH","DECAY_DATE":null,"ECCENTRICITY":"0.00018400","COUNTRY_CODE":"US","EPOCH":"2021-12-05T16:11:48.227136","SITE":"AFETR","REF_FRAME":"TEME","MEAN_ELEMENT_THEORY":"SGP4","GP_ID":"191172578","REV_AT_EPOCH":"3225","NORAD_CAT_ID":"48452","MEAN_ANOMALY":"301.0170","MEAN_MOTION":"15.06388810","ELEMENT_SET_NO":"999","MEAN_MOTION_DOT":"-0.00002594","LAUNCH_DATE":"2021-05-09"},{"NORAD_CAT_ID":"48453","GP_ID":"191172422","REV_AT_EPOCH":"3225","ELEMENT_SET_NO":"999","MEAN_MOTION_DOT":"0.00000494","LAUNCH_DATE":"2021-05-09","MEAN_ANOMALY":"302.2417","MEAN_MOTION":"15.06396371","ECCENTRICITY":"0.00017390","COUNTRY_CODE":"US","CENTER_NAME":"EARTH","DECAY_DATE":null,"SITE":"AFETR","MEAN_ELEMENT_THEORY":"SGP4","REF_FRAME":"TEME","EPOCH":"2021-12-05T16:02:33.255744","RCS_SIZE":"LARGE","PERIOD":"95.592","OBJECT_ID":"2021-040AB","TLE_LINE2":"2 48453  53.0556 322.3675 0001739  57.8741 302.2417 15.06396371 32252","INCLINATION":"53.0556","OBJECT_TYPE":"PAYLOAD","EPHEMERIS_TYPE":"0","FILE":"3233515","RA_OF_ASC_NODE":"322.3675","MEAN_MOTION_DDOT":"0.0000000000000","TIME_SYSTEM":"UTC","TLE_LINE1":"1 48453U 21040AB  21339.66844046  .00000494  00000-0  52056-4 0  9996","SEMIMAJOR_AXIS":"6925.360","OBJECT_NAME":"STARLINK-2620","BSTAR":"0.00005205600000","APOAPSIS":"548.429","PERIAPSIS":"546.020","CLASSIFICATION_TYPE":"U","ARG_OF_PERICENTER":"57.8741"},{"OBJECT_NAME":"STARLINK-2654","CLASSIFICATION_TYPE":"U","ARG_OF_PERICENTER":"48.6676","BSTAR":"0.00005976500000","PERIAPSIS":"545.737","APOAPSIS":"548.693","TIME_SYSTEM":"UTC","TLE_LINE1":"1 48454U 21040AC  21339.66474567  .00000609  00000-0  59765-4 0  9996","SEMIMAJOR_AXIS":"6925.350","EPHEMERIS_TYPE":"0","OBJECT_TYPE":"PAYLOAD","FILE":"3233515","RA_OF_ASC_NODE":"322.3876","MEAN_MOTION_DDOT":"0.0000000000000","RCS_SIZE":"LARGE","OBJECT_ID":"2021-040AC","TLE_LINE2":"2 48454  53.0568 322.3876 0002134  48.6676 311.4496 15.06399530 32253","INCLINATION":"53.0568","PERIOD":"95.592","REF_FRAME":"TEME","MEAN_ELEMENT_THEORY":"SGP4","SITE":"AFETR","EPOCH":"2021-12-05T15:57:14.025888","COUNTRY_CODE":"US","ECCENTRICITY":"0.00021340","CENTER_NAME":"EARTH","DECAY_DATE":null,"LAUNCH_DATE":"2021-05-09","MEAN_MOTION_DOT":"0.00000609","ELEMENT_SET_NO":"999","MEAN_ANOMALY":"311.4496","MEAN_MOTION":"15.06399530","NORAD_CAT_ID":"48454","REV_AT_EPOCH":"3225","GP_ID":"191171640"},{"MEAN_MOTION_DOT":"0.00000288","ELEMENT_SET_NO":"999","LAUNCH_DATE":"2021-05-09","MEAN_MOTION":"15.06393787","MEAN_ANOMALY":"297.5050","NORAD_CAT_ID":"48455","GP_ID":"191172109","REV_AT_EPOCH":"3224","SITE":"AFETR","MEAN_ELEMENT_THEORY":"SGP4","REF_FRAME":"TEME","EPOCH":"2021-12-05T15:51:56.318400","ECCENTRICITY":"0.00017430","COUNTRY_CODE":"US","DECAY_DATE":null,"CENTER_NAME":"EARTH","OBJECT_TYPE":"PAYLOAD","EPHEMERIS_TYPE":"0","RA_OF_ASC_NODE":"322.4069","MEAN_MOTION_DDOT":"0.0000000000000","FILE":"3233515","RCS_SIZE":"LARGE","PERIOD":"95.593","INCLINATION":"53.0552","OBJECT_ID":"2021-040AD","TLE_LINE2":"2 48455  53.0552 322.4069 0001743  62.6116 297.5050 15.06393787 32249","OBJECT_NAME":"STARLINK-2497","PERIAPSIS":"546.026","APOAPSIS":"548.440","BSTAR":"0.00003821600000","ARG_OF_PERICENTER":"62.6116","CLASSIFICATION_TYPE":"U","TLE_LINE1":"1 48455U 21040AD  21339.66106850  .00000288  00000-0  38216-4 0  9995","TIME_SYSTEM":"UTC","SEMIMAJOR_AXIS":"6925.368"}];
